OBJECT_NAME,OBJECT_ID,EPOCH,MEAN_MOTION,ECCENTRICITY,INCLINATION,RA_OF_ASC_NODE,ARG_OF_PERICENTER,MEAN_ANOMALY,EPHEMERIS_TYPE,CLASSIFICATION_TYPE,NORAD_CAT_ID,ELEMENT_SET_NO,REV_AT_EPOCH,BSTAR,MEAN_MOTION_DOT,MEAN_MOTION_DDOT
SAR-LUPE 2,2007-030A,2026-06-11T22:08:44.212416,15.49395972,.00062372,98.1036,266.7072,150.0612,210.0995,0,U,31797,999,5612,.23332369E-3,.12705E-3,0
SAPPHIRE,2013-009C,2026-06-11T22:23:51.757152,14.35239076,.00099833,98.4259,342.5139,264.1658,95.8390,0,U,39088,999,69582,.47395115E-4,.93E-6,0
PRAETORIAN SDA_602,2025-203A,2026-06-11T23:09:11.815776,13.84342262,.00055034,81.3034,15.6070,198.8213,161.2741,0,U,65565,999,3797,.35352743E-4,.51E-6,0
PRAETORIAN SDA_603,2025-203B,2026-06-11T16:48:48.533472,13.83905675,.00090734,81.3037,15.7645,202.7600,157.3156,0,U,65566,999,3794,.13818837E-3,.165E-5,0
PRAETORIAN SDA_604,2025-203C,2026-06-11T22:24:49.793760,13.83047105,.00049963,81.3056,15.9527,206.9676,153.1221,0,U,65567,999,3795,.57869835E-4,.75E-6,0
PRAETORIAN SDA_605,2025-203D,2026-06-11T16:24:35.052192,13.83433808,.00078036,81.3022,15.8522,198.2926,161.7951,0,U,65568,999,3793,.35380685E-4,.51E-6,0
PRAETORIAN SDA_606,2025-203E,2026-06-11T15:59:17.941632,13.83406817,.00054118,81.3057,16.0879,196.6767,163.4212,0,U,65569,999,3792,.42553746E-4,.59E-6,0
PRAETORIAN SDA_607,2025-203F,2026-06-11T23:12:13.618656,13.84284042,.00084052,81.3040,15.4806,202.2718,157.8075,0,U,65570,999,3798,.13598055E-3,.164E-5,0
PRAETORIAN SDA_608,2025-203G,2026-06-11T22:37:08.634720,13.83816391,.00055099,81.3009,15.6634,206.0916,153.9963,0,U,65571,999,3796,.44340183E-4,.61E-6,0
PRAETORIAN SDA_609,2025-203H,2026-06-11T22:46:23.558592,13.84251147,.00063478,81.3053,15.6411,199.4717,160.6199,0,U,65572,999,3797,.1364831E-3,.164E-5,0
PRAETORIAN SDA_610,2025-203J,2026-06-11T22:08:10.950144,13.83851539,.00061791,81.3010,15.6402,203.3937,156.6940,0,U,65573,999,3796,.40678252E-4,.57E-6,0
PRAETORIAN SDA_611,2025-203K,2026-06-11T22:06:20.111040,13.83307326,.00053034,81.3021,15.8022,210.3752,149.7098,0,U,65574,999,3795,.18109595E-3,.211E-5,0
PRAETORIAN SDA_612,2025-203L,2026-06-11T16:48:46.016640,13.85038677,.00088078,81.3031,15.6067,202.3279,157.7496,0,U,65575,999,3795,.12817138E-3,.157E-5,0
PRAETORIAN SDA_613,2025-203M,2026-06-11T22:13:04.076832,13.82764667,.00052795,81.3002,15.7913,198.8416,161.2545,0,U,65576,999,3795,.42400504E-4,.58E-6,0
PRAETORIAN SDA_614,2025-203N,2026-06-11T16:31:41.569248,13.84777839,.00067204,81.3018,15.6940,199.1242,160.9664,0,U,65577,999,3795,.30586333E-4,.46E-6,0
PRAETORIAN SDA_615,2025-203P,2026-06-11T22:52:44.194656,13.84435886,.00086521,81.3025,15.4093,200.0818,160.0000,0,U,65578,999,3798,.15132955E-3,.181E-5,0
PRAETORIAN SDA_616,2025-203Q,2026-06-11T22:04:58.538208,13.83266868,.00051067,81.3065,15.9448,207.8789,152.2095,0,U,65579,999,3795,.17033306E-3,.199E-5,0
PRAETORIAN SDA_617,2025-203R,2026-06-11T22:35:26.382048,13.83149905,.00069808,81.3039,15.7574,198.8952,161.1946,0,U,65580,999,3796,.25527432E-4,.4E-6,0
PRAETORIAN SDA_618,2025-203S,2026-06-11T22:05:07.054656,13.84668967,.00094324,81.3023,15.3710,202.6612,157.4130,0,U,65581,999,3798,.19339687E-3,.229E-5,0
PRAETORIAN SDA_619,2025-203T,2026-06-11T22:52:09.051456,13.83805432,.00078629,81.3050,15.6307,200.4813,159.6029,0,U,65582,999,3860,.25091222E-3,.29E-5,0
PRAETORIAN SDA_620,2025-203U,2026-06-11T21:47:18.278016,13.83617524,.00072922,81.3032,15.6915,195.6932,164.4000,0,U,65583,999,3796,.13524313E-3,.161E-5,0
PRAETORIAN SDA_621,2025-203V,2026-06-11T22:54:40.889952,13.83800800,.0007077,81.3023,15.5684,193.2117,166.8855,0,U,65584,999,3797,.40340753E-4,.57E-6,0
PRAETORIAN SDA_601,2025-203W,2026-06-11T22:08:56.551200,13.83167030,.00050465,81.3050,15.8885,211.1812,148.9045,0,U,65585,999,3795,.34713286E-3,.392E-5,0
