SAR-LUPE 2              
1 31797U 07030A   26162.92273394  .00012705  00000+0  23332-3 0  9993
2 31797  98.1036 266.7072 0006237 150.0612 210.0995 15.49395972 56123
SAPPHIRE                
1 39088U 13009C   26162.93323793  .00000093  00000+0  47395-4 0  9990
2 39088  98.4259 342.5139 0009983 264.1658  95.8390 14.35239076695829
PRAETORIAN SDA_602      
1 65565U 25203A   26162.96472009  .00000051  00000+0  35353-4 0  9991
2 65565  81.3034  15.6070 0005503 198.8213 161.2741 13.84342262 37975
PRAETORIAN SDA_603      
1 65566U 25203B   26162.70056173  .00000165  00000+0  13819-3 0  9992
2 65566  81.3037  15.7645 0009073 202.7600 157.3156 13.83905675 37944
PRAETORIAN SDA_604      
1 65567U 25203C   26162.93390965  .00000075  00000+0  57870-4 0  9994
2 65567  81.3056  15.9527 0004996 206.9676 153.1221 13.83047105 37958
PRAETORIAN SDA_605      
1 65568U 25203D   26162.68373903  .00000051  00000+0  35381-4 0  9997
2 65568  81.3022  15.8522 0007803 198.2926 161.7951 13.83433808 37939
PRAETORIAN SDA_606      
1 65569U 25203E   26162.66617988  .00000059  00000+0  42554-4 0  9998
2 65569  81.3057  16.0879 0005411 196.6767 163.4212 13.83406817 37922
PRAETORIAN SDA_607      
1 65570U 25203F   26162.96682429  .00000164  00000+0  13598-3 0  9997
2 65570  81.3040  15.4806 0008405 202.2718 157.8075 13.84284042 37980
PRAETORIAN SDA_608      
1 65571U 25203G   26162.94246105  .00000061  00000+0  44340-4 0  9999
2 65571  81.3009  15.6634 0005509 206.0916 153.9963 13.83816391 37969
PRAETORIAN SDA_609      
1 65572U 25203H   26162.94888378  .00000164  00000+0  13648-3 0  9994
2 65572  81.3053  15.6411 0006347 199.4717 160.6199 13.84251147 37977
PRAETORIAN SDA_610      
1 65573U 25203J   26162.92234896  .00000057  00000+0  40678-4 0  9998
2 65573  81.3010  15.6402 0006179 203.3937 156.6940 13.83851539 37961
PRAETORIAN SDA_611      
1 65574U 25203K   26162.92106610  .00000211  00000+0  18110-3 0  9998
2 65574  81.3021  15.8022 0005303 210.3752 149.7098 13.83307326 37951
PRAETORIAN SDA_612      
1 65575U 25203L   26162.70053260  .00000157  00000+0  12817-3 0  9994
2 65575  81.3031  15.6067 0008807 202.3279 157.7496 13.85038677 37950
PRAETORIAN SDA_613      
1 65576U 25203M   26162.92574163  .00000058  00000+0  42401-4 0  9992
2 65576  81.3002  15.7913 0005279 198.8416 161.2545 13.82764667 37959
PRAETORIAN SDA_614      
1 65577U 25203N   26162.68867557  .00000046  00000+0  30586-4 0  9996
2 65577  81.3018  15.6940 0006720 199.1242 160.9664 13.84777839 37954
PRAETORIAN SDA_615      
1 65578U 25203P   26162.95328929  .00000181  00000+0  15133-3 0  9992
2 65578  81.3025  15.4093 0008652 200.0818 160.0000 13.84435886 37988
PRAETORIAN SDA_616      
1 65579U 25203Q   26162.92012197  .00000199  00000+0  17033-3 0  9997
2 65579  81.3065  15.9448 0005106 207.8789 152.2095 13.83266868 37950
PRAETORIAN SDA_617      
1 65580U 25203R   26162.94127757  .00000040  00000+0  25527-4 0  9993
2 65580  81.3039  15.7574 0006980 198.8952 161.1946 13.83149905 37960
PRAETORIAN SDA_618      
1 65581U 25203S   26162.92022054  .00000229  00000+0  19340-3 0  9990
2 65581  81.3023  15.3710 0009432 202.6612 157.4130 13.84668967 37984
PRAETORIAN SDA_619      
1 65582U 25203T   26162.95288254  .00000290  00000+0  25091-3 0  9998
2 65582  81.3050  15.6307 0007862 200.4813 159.6029 13.83805432 38604
PRAETORIAN SDA_620      
1 65583U 25203U   26162.90785044  .00000161  00000+0  13524-3 0  9998
2 65583  81.3032  15.6915 0007292 195.6932 164.4000 13.83617524 37968
PRAETORIAN SDA_621      
1 65584U 25203V   26162.95463993  .00000057  00000+0  40341-4 0  9992
2 65584  81.3023  15.5684 0007077 193.2117 166.8855 13.83800800 37977
PRAETORIAN SDA_601      
1 65585U 25203W   26162.92287675  .00000392  00000+0  34713-3 0  9998
2 65585  81.3050  15.8885 0005046 211.1812 148.9045 13.83167030 37951
